STARLINK-31448          
1 59611U 24080L   26068.30660454 -.00000110  00000+0  55219-5 0  9995
2 59611  43.0048  36.6460 0001473 247.8128 112.2567 15.27580783104516
FLOCK 4G-30             
1 62679U 25009BY  26068.70871344  .00013147  00000+0  49475-3 0  9999
2 62679  97.3969 150.6012 0003795 342.4152  17.6955 15.27244548121341
